{"fetched_at":"2026-03-29T16:36:15Z","count":15609,"tles":[{"name":"2024-205Q","line1":"1 61908U 24205Q   26085.35241182  .00006328  00000+0  32522-3 0  9999","line2":"2 61908  97.4180 159.6416 0011538 352.9607   7.1463 15.16764777 75775","category":"Other"}]}